<?xml version="1.0" encoding="UTF-8"?>
<ndm xmlns:xsi="http://www.w3.org/2001/XMLSchema-instance" xsi:noNamespaceSchemaLocation="https://sanaregistry.org/r/ndmxml_unqualified/ndmxml-2.0.0-master-2.0.xsd">
<omm id="CCSDS_OMM_VERS" version="2.0">
<header><CREATION_DATE/><ORIGINATOR/></header><body><segment><metadata><OBJECT_NAME>KUIPER-00039</OBJECT_NAME><OBJECT_ID>2025-134A</OBJECT_ID><CENTER_NAME>EARTH</CENTER_NAME><REF_FRAME>TEME</REF_FRAME><TIME_SYSTEM>UTC</TIME_SYSTEM><MEAN_ELEMENT_THEORY>SGP4</MEAN_ELEMENT_THEORY></metadata><data><meanElements><EPOCH>2025-12-23T01:14:04.200864</EPOCH><MEAN_MOTION>14.79956398</MEAN_MOTION><ECCENTRICITY>.00115497</ECCENTRICITY><INCLINATION>51.8990</INCLINATION><RA_OF_ASC_NODE>211.9775</RA_OF_ASC_NODE><ARG_OF_PERICENTER>37.6764</ARG_OF_PERICENTER><MEAN_ANOMALY>322.5006</MEAN_ANOMALY></meanElements><tleParameters><EPHEMERIS_TYPE>0</EPHEMERIS_TYPE><CLASSIFICATION_TYPE>U</CLASSIFICATION_TYPE><NORAD_CAT_ID>64500</NORAD_CAT_ID><ELEMENT_SET_NO>999</ELEMENT_SET_NO><REV_AT_EPOCH>2872</REV_AT_EPOCH><BSTAR>.48478624E-3</BSTAR><MEAN_MOTION_DOT>.3479E-4</MEAN_MOTION_DOT><MEAN_MOTION_DDOT>0</MEAN_MOTION_DDOT></tleParameters></data></segment></body></omm>
<omm id="CCSDS_OMM_VERS" version="2.0">
<header><CREATION_DATE/><ORIGINATOR/></header><body><segment><metadata><OBJECT_NAME>KUIPER-00040</OBJECT_NAME><OBJECT_ID>2025-134B</OBJECT_ID><CENTER_NAME>EARTH</CENTER_NAME><REF_FRAME>TEME</REF_FRAME><TIME_SYSTEM>UTC</TIME_SYSTEM><MEAN_ELEMENT_THEORY>SGP4</MEAN_ELEMENT_THEORY></metadata><data><meanElements><EPOCH>2025-12-23T00:56:02.569632</EPOCH><MEAN_MOTION>14.79944040</MEAN_MOTION><ECCENTRICITY>.0016982</ECCENTRICITY><INCLINATION>51.8973</INCLINATION><RA_OF_ASC_NODE>223.1866</RA_OF_ASC_NODE><ARG_OF_PERICENTER>16.5603</ARG_OF_PERICENTER><MEAN_ANOMALY>343.5911</MEAN_ANOMALY></meanElements><tleParameters><EPHEMERIS_TYPE>0</EPHEMERIS_TYPE><CLASSIFICATION_TYPE>U</CLASSIFICATION_TYPE><NORAD_CAT_ID>64501</NORAD_CAT_ID><ELEMENT_SET_NO>999</ELEMENT_SET_NO><REV_AT_EPOCH>2856</REV_AT_EPOCH><BSTAR>.54236652E-3</BSTAR><MEAN_MOTION_DOT>.3922E-4</MEAN_MOTION_DOT><MEAN_MOTION_DDOT>0</MEAN_MOTION_DDOT></tleParameters></data></segment></body></omm>
<omm id="CCSDS_OMM_VERS" version="2.0">
<header><CREATION_DATE/><ORIGINATOR/></header><body><segment><metadata><OBJECT_NAME>KUIPER-00041</OBJECT_NAME><OBJECT_ID>2025-134C</OBJECT_ID><CENTER_NAME>EARTH</CENTER_NAME><REF_FRAME>TEME</REF_FRAME><TIME_SYSTEM>UTC</TIME_SYSTEM><MEAN_ELEMENT_THEORY>SGP4</MEAN_ELEMENT_THEORY></metadata><data><meanElements><EPOCH>2025-12-23T00:54:37.368864</EPOCH><MEAN_MOTION>14.79964405</MEAN_MOTION><ECCENTRICITY>.00126658</ECCENTRICITY><INCLINATION>51.8949</INCLINATION><RA_OF_ASC_NODE>224.5440</RA_OF_ASC_NODE><ARG_OF_PERICENTER>16.8285</ARG_OF_PERICENTER><MEAN_ANOMALY>343.3095</MEAN_ANOMALY></meanElements><tleParameters><EPHEMERIS_TYPE>0</EPHEMERIS_TYPE><CLASSIFICATION_TYPE>U</CLASSIFICATION_TYPE><NORAD_CAT_ID>64502</NORAD_CAT_ID><ELEMENT_SET_NO>999</ELEMENT_SET_NO><REV_AT_EPOCH>2854</REV_AT_EPOCH><BSTAR>.15584916E-2</BSTAR><MEAN_MOTION_DOT>.11702E-3</MEAN_MOTION_DOT><MEAN_MOTION_DDOT>0</MEAN_MOTION_DDOT></tleParameters></data></segment></body></omm>
<omm id="CCSDS_OMM_VERS" version="2.0">
<header><CREATION_DATE/><ORIGINATOR/></header><body><segment><metadata><OBJECT_NAME>KUIPER-00042</OBJECT_NAME><OBJECT_ID>2025-134D</OBJECT_ID><CENTER_NAME>EARTH</CENTER_NAME><REF_FRAME>TEME</REF_FRAME><TIME_SYSTEM>UTC</TIME_SYSTEM><MEAN_ELEMENT_THEORY>SGP4</MEAN_ELEMENT_THEORY></metadata><data><meanElements><EPOCH>2025-12-23T00:59:56.984928</EPOCH><MEAN_MOTION>14.79976639</MEAN_MOTION><ECCENTRICITY>.00127408</ECCENTRICITY><INCLINATION>51.8976</INCLINATION><RA_OF_ASC_NODE>220.5338</RA_OF_ASC_NODE><ARG_OF_PERICENTER>27.6919</ARG_OF_PERICENTER><MEAN_ANOMALY>332.4719</MEAN_ANOMALY></meanElements><tleParameters><EPHEMERIS_TYPE>0</EPHEMERIS_TYPE><CLASSIFICATION_TYPE>U</CLASSIFICATION_TYPE><NORAD_CAT_ID>64503</NORAD_CAT_ID><ELEMENT_SET_NO>999</ELEMENT_SET_NO><REV_AT_EPOCH>2860</REV_AT_EPOCH><BSTAR>.5403018E-3</BSTAR><MEAN_MOTION_DOT>.3906E-4</MEAN_MOTION_DOT><MEAN_MOTION_DDOT>0</MEAN_MOTION_DDOT></tleParameters></data></segment></body></omm>
<omm id="CCSDS_OMM_VERS" version="2.0">
<header><CREATION_DATE/><ORIGINATOR/></header><body><segment><metadata><OBJECT_NAME>KUIPER-00043</OBJECT_NAME><OBJECT_ID>2025-134E</OBJECT_ID><CENTER_NAME>EARTH</CENTER_NAME><REF_FRAME>TEME</REF_FRAME><TIME_SYSTEM>UTC</TIME_SYSTEM><MEAN_ELEMENT_THEORY>SGP4</MEAN_ELEMENT_THEORY></metadata><data><meanElements><EPOCH>2025-12-23T01:11:48.174432</EPOCH><MEAN_MOTION>14.79878277</MEAN_MOTION><ECCENTRICITY>.00035136</ECCENTRICITY><INCLINATION>51.9012</INCLINATION><RA_OF_ASC_NODE>212.9387</RA_OF_ASC_NODE><ARG_OF_PERICENTER>67.1006</ARG_OF_PERICENTER><MEAN_ANOMALY>293.0327</MEAN_ANOMALY></meanElements><tleParameters><EPHEMERIS_TYPE>0</EPHEMERIS_TYPE><CLASSIFICATION_TYPE>U</CLASSIFICATION_TYPE><NORAD_CAT_ID>64504</NORAD_CAT_ID><ELEMENT_SET_NO>999</ELEMENT_SET_NO><REV_AT_EPOCH>2871</REV_AT_EPOCH><BSTAR>.11232516E-2</BSTAR><MEAN_MOTION_DOT>.8341E-4</MEAN_MOTION_DOT><MEAN_MOTION_DDOT>0</MEAN_MOTION_DDOT></tleParameters></data></segment></body></omm>
<omm id="CCSDS_OMM_VERS" version="2.0">
<header><CREATION_DATE/><ORIGINATOR/></header><body><segment><metadata><OBJECT_NAME>KUIPER-00044</OBJECT_NAME><OBJECT_ID>2025-134F</OBJECT_ID><CENTER_NAME>EARTH</CENTER_NAME><REF_FRAME>TEME</REF_FRAME><TIME_SYSTEM>UTC</TIME_SYSTEM><MEAN_ELEMENT_THEORY>SGP4</MEAN_ELEMENT_THEORY></metadata><data><meanElements><EPOCH>2025-12-22T20:00:29.474208</EPOCH><MEAN_MOTION>14.79920338</MEAN_MOTION><ECCENTRICITY>.00118697</ECCENTRICITY><INCLINATION>51.8987</INCLINATION><RA_OF_ASC_NODE>226.4515</RA_OF_ASC_NODE><ARG_OF_PERICENTER>22.1133</ARG_OF_PERICENTER><MEAN_ANOMALY>338.0339</MEAN_ANOMALY></meanElements><tleParameters><EPHEMERIS_TYPE>0</EPHEMERIS_TYPE><CLASSIFICATION_TYPE>U</CLASSIFICATION_TYPE><NORAD_CAT_ID>64505</NORAD_CAT_ID><ELEMENT_SET_NO>999</ELEMENT_SET_NO><REV_AT_EPOCH>2850</REV_AT_EPOCH><BSTAR>.48488254E-3</BSTAR><MEAN_MOTION_DOT>.3477E-4</MEAN_MOTION_DOT><MEAN_MOTION_DDOT>0</MEAN_MOTION_DDOT></tleParameters></data></segment></body></omm>
<omm id="CCSDS_OMM_VERS" version="2.0">
<header><CREATION_DATE/><ORIGINATOR/></header><body><segment><metadata><OBJECT_NAME>KUIPER-00046</OBJECT_NAME><OBJECT_ID>2025-134G</OBJECT_ID><CENTER_NAME>EARTH</CENTER_NAME><REF_FRAME>TEME</REF_FRAME><TIME_SYSTEM>UTC</TIME_SYSTEM><MEAN_ELEMENT_THEORY>SGP4</MEAN_ELEMENT_THEORY></metadata><data><meanElements><EPOCH>2025-12-23T00:38:42.180576</EPOCH><MEAN_MOTION>14.80702249</MEAN_MOTION><ECCENTRICITY>.00129274</ECCENTRICITY><INCLINATION>51.8961</INCLINATION><RA_OF_ASC_NODE>221.9214</RA_OF_ASC_NODE><ARG_OF_PERICENTER>31.9878</ARG_OF_PERICENTER><MEAN_ANOMALY>328.1867</MEAN_ANOMALY></meanElements><tleParameters><EPHEMERIS_TYPE>0</EPHEMERIS_TYPE><CLASSIFICATION_TYPE>U</CLASSIFICATION_TYPE><NORAD_CAT_ID>64506</NORAD_CAT_ID><ELEMENT_SET_NO>999</ELEMENT_SET_NO><REV_AT_EPOCH>2858</REV_AT_EPOCH><BSTAR>.47785464E-3</BSTAR><MEAN_MOTION_DOT>.3491E-4</MEAN_MOTION_DOT><MEAN_MOTION_DDOT>0</MEAN_MOTION_DDOT></tleParameters></data></segment></body></omm>
<omm id="CCSDS_OMM_VERS" version="2.0">
<header><CREATION_DATE/><ORIGINATOR/></header><body><segment><metadata><OBJECT_NAME>KUIPER-00047</OBJECT_NAME><OBJECT_ID>2025-134H</OBJECT_ID><CENTER_NAME>EARTH</CENTER_NAME><REF_FRAME>TEME</REF_FRAME><TIME_SYSTEM>UTC</TIME_SYSTEM><MEAN_ELEMENT_THEORY>SGP4</MEAN_ELEMENT_THEORY></metadata><data><meanElements><EPOCH>2025-12-21T23:34:56.873280</EPOCH><MEAN_MOTION>14.83011409</MEAN_MOTION><ECCENTRICITY>.00091439</ECCENTRICITY><INCLINATION>51.8988</INCLINATION><RA_OF_ASC_NODE>198.0712</RA_OF_ASC_NODE><ARG_OF_PERICENTER>43.0076</ARG_OF_PERICENTER><MEAN_ANOMALY>317.1601</MEAN_ANOMALY></meanElements><tleParameters><EPHEMERIS_TYPE>0</EPHEMERIS_TYPE><CLASSIFICATION_TYPE>U</CLASSIFICATION_TYPE><NORAD_CAT_ID>64507</NORAD_CAT_ID><ELEMENT_SET_NO>999</ELEMENT_SET_NO><REV_AT_EPOCH>2882</REV_AT_EPOCH><BSTAR>-.17092072E-3</BSTAR><MEAN_MOTION_DOT>-.1633E-4</MEAN_MOTION_DOT><MEAN_MOTION_DDOT>0</MEAN_MOTION_DDOT></tleParameters></data></segment></body></omm>
<omm id="CCSDS_OMM_VERS" version="2.0">
<header><CREATION_DATE/><ORIGINATOR/></header><body><segment><metadata><OBJECT_NAME>KUIPER-00048</OBJECT_NAME><OBJECT_ID>2025-134J</OBJECT_ID><CENTER_NAME>EARTH</CENTER_NAME><REF_FRAME>TEME</REF_FRAME><TIME_SYSTEM>UTC</TIME_SYSTEM><MEAN_ELEMENT_THEORY>SGP4</MEAN_ELEMENT_THEORY></metadata><data><meanElements><EPOCH>2025-12-23T00:03:54.576000</EPOCH><MEAN_MOTION>14.79926235</MEAN_MOTION><ECCENTRICITY>.00027909</ECCENTRICITY><INCLINATION>51.8975</INCLINATION><RA_OF_ASC_NODE>194.6934</RA_OF_ASC_NODE><ARG_OF_PERICENTER>165.0301</ARG_OF_PERICENTER><MEAN_ANOMALY>195.0745</MEAN_ANOMALY></meanElements><tleParameters><EPHEMERIS_TYPE>0</EPHEMERIS_TYPE><CLASSIFICATION_TYPE>U</CLASSIFICATION_TYPE><NORAD_CAT_ID>64508</NORAD_CAT_ID><ELEMENT_SET_NO>999</ELEMENT_SET_NO><REV_AT_EPOCH>2896</REV_AT_EPOCH><BSTAR>.39763493E-3</BSTAR><MEAN_MOTION_DOT>.2811E-4</MEAN_MOTION_DOT><MEAN_MOTION_DDOT>0</MEAN_MOTION_DDOT></tleParameters></data></segment></body></omm>

</ndm>
